CCSDS_OMM_VERS = 2.0
CREATION_DATE  = 
ORIGINATOR     = 

OBJECT_NAME    = COSMOS 2242
OBJECT_ID      = 1993-024A
CENTER_NAME    = EARTH
REF_FRAME      = TEME
TIME_SYSTEM    = UTC
MEAN_ELEMENT_THEORY = SGP/SGP4

EPOCH          = 2026-04-03T21:48:50.335488
MEAN_MOTION    = 14.96671287
ECCENTRICITY   = .00154972
INCLINATION    = 82.5174
RA_OF_ASC_NODE = 242.5872
ARG_OF_PERICENTER = 216.6596
MEAN_ANOMALY   = 143.3568

EPHEMERIS_TYPE = 0
CLASSIFICATION_TYPE = U
NORAD_CAT_ID   = 22626
ELEMENT_SET_NO = 999
REV_AT_EPOCH   = 78416
BSTAR          = .35195187E-3
MEAN_MOTION_DOT = .4049E-4
MEAN_MOTION_DDOT = 0

CCSDS_OMM_VERS = 2.0
CREATION_DATE  = 
ORIGINATOR     = 

OBJECT_NAME    = SL-16 R/B
OBJECT_ID      = 1993-059B
CENTER_NAME    = EARTH
REF_FRAME      = TEME
TIME_SYSTEM    = UTC
MEAN_ELEMENT_THEORY = SGP/SGP4

EPOCH          = 2026-04-03T22:57:38.755584
MEAN_MOTION    = 14.17234867
ECCENTRICITY   = .00170849
INCLINATION    = 70.9906
RA_OF_ASC_NODE = 317.8462
ARG_OF_PERICENTER = 179.1684
MEAN_ANOMALY   = 180.9472

EPHEMERIS_TYPE = 0
CLASSIFICATION_TYPE = U
NORAD_CAT_ID   = 22803
ELEMENT_SET_NO = 999
REV_AT_EPOCH   = 68311
BSTAR          = .66080844E-4
MEAN_MOTION_DOT = .86E-6
MEAN_MOTION_DDOT = 0

CCSDS_OMM_VERS = 2.0
CREATION_DATE  = 
ORIGINATOR     = 

OBJECT_NAME    = ARIANE 40 R/B
OBJECT_ID      = 1993-061H
CENTER_NAME    = EARTH
REF_FRAME      = TEME
TIME_SYSTEM    = UTC
MEAN_ELEMENT_THEORY = SGP/SGP4

EPOCH          = 2026-04-03T18:25:22.831968
MEAN_MOTION    = 14.32875370
ECCENTRICITY   = .0010326
INCLINATION    = 98.4871
RA_OF_ASC_NODE = 162.1547
ARG_OF_PERICENTER = 203.9260
MEAN_ANOMALY   = 156.1446

EPHEMERIS_TYPE = 0
CLASSIFICATION_TYPE = U
NORAD_CAT_ID   = 22830
ELEMENT_SET_NO = 999
REV_AT_EPOCH   = 69769
BSTAR          = .14629E-3
MEAN_MOTION_DOT = .356E-5
MEAN_MOTION_DDOT = 0

CCSDS_OMM_VERS = 2.0
CREATION_DATE  = 
ORIGINATOR     = 

OBJECT_NAME    = COSMOS 2278
OBJECT_ID      = 1994-023A
CENTER_NAME    = EARTH
REF_FRAME      = TEME
TIME_SYSTEM    = UTC
MEAN_ELEMENT_THEORY = SGP/SGP4

EPOCH          = 2026-04-03T11:49:06.828096
MEAN_MOTION    = 14.14374884
ECCENTRICITY   = .00093198
INCLINATION    = 71.0506
RA_OF_ASC_NODE = 123.2078
ARG_OF_PERICENTER = 336.5265
MEAN_ANOMALY   = 23.5431

EPHEMERIS_TYPE = 0
CLASSIFICATION_TYPE = U
NORAD_CAT_ID   = 23087
ELEMENT_SET_NO = 999
REV_AT_EPOCH   = 64831
BSTAR          = .24197813E-4
MEAN_MOTION_DOT = -.1E-7
MEAN_MOTION_DDOT = 0

CCSDS_OMM_VERS = 2.0
CREATION_DATE  = 
ORIGINATOR     = 

OBJECT_NAME    = SL-16 R/B
OBJECT_ID      = 1994-023B
CENTER_NAME    = EARTH
REF_FRAME      = TEME
TIME_SYSTEM    = UTC
MEAN_ELEMENT_THEORY = SGP/SGP4

EPOCH          = 2026-04-03T22:50:43.349568
MEAN_MOTION    = 14.15019511
ECCENTRICITY   = .00055798
INCLINATION    = 71.0031
RA_OF_ASC_NODE = 17.8332
ARG_OF_PERICENTER = 263.6133
MEAN_ANOMALY   = 96.4355

EPHEMERIS_TYPE = 0
CLASSIFICATION_TYPE = U
NORAD_CAT_ID   = 23088
ELEMENT_SET_NO = 999
REV_AT_EPOCH   = 64966
BSTAR          = .12637763E-3
MEAN_MOTION_DOT = .197E-5
MEAN_MOTION_DDOT = 0

CCSDS_OMM_VERS = 2.0
CREATION_DATE  = 
ORIGINATOR     = 

OBJECT_NAME    = SL-16 R/B
OBJECT_ID      = 1994-074B
CENTER_NAME    = EARTH
REF_FRAME      = TEME
TIME_SYSTEM    = UTC
MEAN_ELEMENT_THEORY = SGP/SGP4

EPOCH          = 2026-04-03T22:53:57.987168
MEAN_MOTION    = 14.79439114
ECCENTRICITY   = .00076782
INCLINATION    = 97.7070
RA_OF_ASC_NODE = 123.7446
ARG_OF_PERICENTER = 131.0191
MEAN_ANOMALY   = 292.2297

EPHEMERIS_TYPE = 0
CLASSIFICATION_TYPE = U
NORAD_CAT_ID   = 23343
ELEMENT_SET_NO = 999
REV_AT_EPOCH   = 69098
BSTAR          = .11560903E-3
MEAN_MOTION_DOT = .814E-5
MEAN_MOTION_DDOT = 0

CCSDS_OMM_VERS = 2.0
CREATION_DATE  = 
ORIGINATOR     = 

OBJECT_NAME    = SL-16 R/B
OBJECT_ID      = 1994-077B
CENTER_NAME    = EARTH
REF_FRAME      = TEME
TIME_SYSTEM    = UTC
MEAN_ELEMENT_THEORY = SGP/SGP4

EPOCH          = 2026-04-03T22:10:01.987104
MEAN_MOTION    = 14.15568210
ECCENTRICITY   = .00016089
INCLINATION    = 70.9821
RA_OF_ASC_NODE = 299.4029
ARG_OF_PERICENTER = 190.2526
MEAN_ANOMALY   = 169.8564

EPHEMERIS_TYPE = 0
CLASSIFICATION_TYPE = U
NORAD_CAT_ID   = 23405
ELEMENT_SET_NO = 999
REV_AT_EPOCH   = 61980
BSTAR          = -.72840437E-4
MEAN_MOTION_DOT = -.19E-5
MEAN_MOTION_DDOT = 0

CCSDS_OMM_VERS = 2.0
CREATION_DATE  = 
ORIGINATOR     = 

OBJECT_NAME    = ARIANE 40+ R/B
OBJECT_ID      = 1995-021B
CENTER_NAME    = EARTH
REF_FRAME      = TEME
TIME_SYSTEM    = UTC
MEAN_ELEMENT_THEORY = SGP/SGP4

EPOCH          = 2026-04-03T16:57:05.767200
MEAN_MOTION    = 14.39791754
ECCENTRICITY   = .00078536
INCLINATION    = 98.4454
RA_OF_ASC_NODE = 164.8446
ARG_OF_PERICENTER = 72.1356
MEAN_ANOMALY   = 41.9891

EPHEMERIS_TYPE = 0
CLASSIFICATION_TYPE = U
NORAD_CAT_ID   = 23561
ELEMENT_SET_NO = 999
REV_AT_EPOCH   = 62284
BSTAR          = .172875E-3
MEAN_MOTION_DOT = .499E-5
MEAN_MOTION_DDOT = 0

CCSDS_OMM_VERS = 2.0
CREATION_DATE  = 
ORIGINATOR     = 

OBJECT_NAME    = SL-16 R/B
OBJECT_ID      = 1995-058B
CENTER_NAME    = EARTH
REF_FRAME      = TEME
TIME_SYSTEM    = UTC
MEAN_ELEMENT_THEORY = SGP/SGP4

EPOCH          = 2026-04-03T12:11:18.659904
MEAN_MOTION    = 14.15497860
ECCENTRICITY   = .00102697
INCLINATION    = 71.0192
RA_OF_ASC_NODE = 128.1524
ARG_OF_PERICENTER = 80.2061
MEAN_ANOMALY   = 280.0221

EPHEMERIS_TYPE = 0
CLASSIFICATION_TYPE = U
NORAD_CAT_ID   = 23705
ELEMENT_SET_NO = 999
REV_AT_EPOCH   = 57136
BSTAR          = -.10657853E-4
MEAN_MOTION_DOT = -.68E-6
MEAN_MOTION_DDOT = 0

CCSDS_OMM_VERS = 2.0
CREATION_DATE  = 
ORIGINATOR     = 

OBJECT_NAME    = SL-16 R/B
OBJECT_ID      = 1996-051B
CENTER_NAME    = EARTH
REF_FRAME      = TEME
TIME_SYSTEM    = UTC
MEAN_ELEMENT_THEORY = SGP/SGP4

EPOCH          = 2026-04-03T12:40:57.041472
MEAN_MOTION    = 14.12423229
ECCENTRICITY   = .00131365
INCLINATION    = 70.7581
RA_OF_ASC_NODE = 122.6662
ARG_OF_PERICENTER = 107.2994
MEAN_ANOMALY   = 252.9564

EPHEMERIS_TYPE = 0
CLASSIFICATION_TYPE = U
NORAD_CAT_ID   = 24298
ELEMENT_SET_NO = 999
REV_AT_EPOCH   = 52515
BSTAR          = .10535924E-3
MEAN_MOTION_DOT = .145E-5
MEAN_MOTION_DDOT = 0

CCSDS_OMM_VERS = 2.0
CREATION_DATE  = 
ORIGINATOR     = 

OBJECT_NAME    = ORBVIEW 2 (SEASTAR)
OBJECT_ID      = 1997-037A
CENTER_NAME    = EARTH
REF_FRAME      = TEME
TIME_SYSTEM    = UTC
MEAN_ELEMENT_THEORY = SGP/SGP4

EPOCH          = 2026-04-03T22:17:18.040992
MEAN_MOTION    = 14.35514090
ECCENTRICITY   = .00020918
INCLINATION    = 98.8610
RA_OF_ASC_NODE = 258.9151
ARG_OF_PERICENTER = 15.0285
MEAN_ANOMALY   = 345.0962

EPHEMERIS_TYPE = 0
CLASSIFICATION_TYPE = U
NORAD_CAT_ID   = 24883
ELEMENT_SET_NO = 999
REV_AT_EPOCH   = 51209
BSTAR          = .17797259E-3
MEAN_MOTION_DOT = .465E-5
MEAN_MOTION_DDOT = 0

CCSDS_OMM_VERS = 2.0
CREATION_DATE  = 
ORIGINATOR     = 

OBJECT_NAME    = SL-16 R/B
OBJECT_ID      = 1998-043G
CENTER_NAME    = EARTH
REF_FRAME      = TEME
TIME_SYSTEM    = UTC
MEAN_ELEMENT_THEORY = SGP/SGP4

EPOCH          = 2026-04-03T20:24:01.751328
MEAN_MOTION    = 14.26056012
ECCENTRICITY   = .00089712
INCLINATION    = 98.8297
RA_OF_ASC_NODE = 47.3985
ARG_OF_PERICENTER = 305.6096
MEAN_ANOMALY   = 54.4247

EPHEMERIS_TYPE = 0
CLASSIFICATION_TYPE = U
NORAD_CAT_ID   = 25400
ELEMENT_SET_NO = 999
REV_AT_EPOCH   = 44257
BSTAR          = .68031435E-4
MEAN_MOTION_DOT = .117E-5
MEAN_MOTION_DDOT = 0

